IRIDIUM 7               
1 24793U 97020B   25047.89563599  .00000816  00000+0  27553-3 0  9994
2 24793  86.3938 227.2670 0002216  97.8062 262.3386 14.35764702454634
IRIDIUM 5               
1 24795U 97020D   25047.78340112  .00009945  00000+0  85427-3 0  9994
2 24795  86.3936 139.1906 0111821 209.1644 150.3312 14.92531878467496
IRIDIUM 4               
1 24796U 97020E   25047.95489244  .00000900  00000+0  29903-3 0  9993
2 24796  86.3939 224.1982 0001997  94.8797 265.2628 14.36675570455207
IRIDIUM 914             
1 24836U 97030A   25047.94522028  .00000968  00000+0  29736-3 0  9994
2 24836  86.3905 233.1689 0000604 132.3039 227.8211 14.40659582589817
IRIDIUM 16              
1 24841U 97030F   25047.93389355  .00000778  00000+0  24833-3 0  9995
2 24841  86.3980 255.7923 0004254  95.2718 264.8965 14.38517656449716
IRIDIUM 911             
1 24842U 97030G   25047.83505855  .00001000  00000+0  26722-3 0  9998
2 24842  86.4407 254.7278 0015620 133.3810 226.8697 14.47368469457670
IRIDIUM 17              
1 24870U 97034B   25047.91645575  .00000802  00000+0  26074-3 0  9995
2 24870  86.3928 285.3603 0003531  69.3637 290.7939 14.37635322446304
IRIDIUM 920             
1 24871U 97034C   25047.85167636  .00000684  00000+0  20501-3 0  9993
2 24871  86.3923 264.8710 0013347 114.6016 245.6576 14.41336240449246
